{
  "links" : {
    "next" : "https://api.nasa.gov/neo/rest/v1/feed?start_date=2011-02-16&end_date=2011-02-16&detailed=true&api_key=t0TVs3DtDT2H8Oy2Zy8m2eVrNsAVKAexjcZXUckd",
    "prev" : "https://api.nasa.gov/neo/rest/v1/feed?start_date=2011-02-14&end_date=2011-02-14&detailed=true&api_key=t0TVs3DtDT2H8Oy2Zy8m2eVrNsAVKAexjcZXUckd",
    "self" : "https://api.nasa.gov/neo/rest/v1/feed?start_date=2011-02-15&end_date=2011-02-15&detailed=true&api_key=t0TVs3DtDT2H8Oy2Zy8m2eVrNsAVKAexjcZXUckd"
  },
  "element_count" : 7,
  "near_earth_objects" : {
    "2011-02-15" : [ {
      "links" : {
        "self" : "https://api.nasa.gov/neo/rest/v1/neo/3740929?api_key=t0TVs3DtDT2H8Oy2Zy8m2eVrNsAVKAexjcZXUckd"
      },
      "neo_reference_id" : "3740929",
      "name" : "(2016 BW14)",
      "nasa_jpl_url" : "http://ssd.jpl.nasa.gov/sbdb.cgi?sstr=3740929",
      "absolute_magnitude_h" : 25.8,
      "estimated_diameter" : {
        "kilometers" : {
          "estimated_diameter_min" : 0.0183888672,
          "estimated_diameter_max" : 0.0411187571
        },
        "meters" : {
          "estimated_diameter_min" : 18.388867207,
          "estimated_diameter_max" : 41.1187571041
        },
        "miles" : {
          "estimated_diameter_min" : 0.0114263088,
          "estimated_diameter_max" : 0.0255500032
        },
        "feet" : {
          "estimated_diameter_min" : 60.3309310875,
          "estimated_diameter_max" : 134.9040630575
        }
      },
      "is_potentially_hazardous_asteroid" : false,
      "close_approach_data" : [ {
        "close_approach_date" : "2011-02-15",
        "epoch_date_close_approach" : 1297756800000,
        "relative_velocity" : {
          "kilometers_per_second" : "12.8992662984",
          "kilometers_per_hour" : "46437.3586743487",
          "miles_per_hour" : "28854.3687829585"
        },
        "miss_distance" : {
          "astronomical" : "0.2363871256",
          "lunar" : "91.9545898438",
          "kilometers" : "35363008",
          "miles" : "21973556"
        },
        "orbiting_body" : "Earth"
      } ],
      "orbital_data" : {
        "orbit_id" : "7",
        "orbit_determination_date" : "2017-04-06 08:28:53",
        "orbit_uncertainty" : "6",
        "minimum_orbit_intersection" : ".0424494",
        "jupiter_tisserand_invariant" : "6.642",
        "epoch_osculation" : "2458000.5",
        "eccentricity" : ".1932362772885635",
        "semi_major_axis" : ".8914455114941706",
        "inclination" : "7.580553673069472",
        "ascending_node_longitude" : "127.6942725399475",
        "orbital_period" : "307.4260257616186",
        "perihelion_distance" : ".7191858994474377",
        "perihelion_argument" : "156.42246395",
        "aphelion_distance" : "1.063705123540903",
        "perihelion_time" : "2457847.731923325821",
        "mean_anomaly" : "178.8934670265987",
        "mean_motion" : "1.171013414066471",
        "equinox" : "J2000"
      }
    } ]
  }
}